INTELSAT 37E (IS-37E)   
1 42950U 17059A   19185.46037314 -.00000145  00000-0  00000+0 0  9994
2 42950   0.0219  48.0545 0002332  60.5747 321.2739  1.00268627  6587
BSAT-4A                 
1 42951U 17059B   19184.83981830 -.00000352  00000-0  00000+0 0  9996
2 42951   0.0351  11.3734 0003409  65.0667 257.3045  1.00271103  6475
QZS-4 (MICHIBIKI-4)     
1 42965U 17062A   19184.84714612 -.00000314  00000-0  00000-0 0  9997
2 42965  40.7553  16.2238 0747019 271.7899  75.1667  1.00255784  6342
SES-11 (ECHOSTAR 105)   
1 42967U 17063A   19185.54427060 -.00000093  00000-0  00000+0 0  9999
2 42967   0.0198  76.4508 0001950  38.4948 258.2893  1.00271496  6349
KOREASAT 5A             
1 42984U 17067A   19185.48654225 -.00000362  00000-0  00000+0 0  9999
2 42984   0.0267  99.5485 0001516 359.4834 111.4758  1.00270256  6166
ALCOMSAT 1              
1 43039U 17078A   19185.45906462 -.00000190  00000-0  00000+0 0  9992
2 43039   0.0212 276.3102 0003521 187.3814 318.9448  1.00272462  5826
SBIRS GEO-4 (USA 282)   
1 43162U 18009A   19184.77387314 -.00000287  00000-0  00000+0 0  9994
2 43162   5.6100 318.2306 0002113 138.1868 242.6847  1.00270715  5365
AL YAH 3                
1 43174U 18012A   19185.14216010 -.00000158  00000-0  00000+0 0  9994
2 43174   0.0223  27.9869 0001696  74.2943 210.6457  1.00269259  5374
SES-14                  
1 43175U 18012B   19185.31097677 -.00000282  00000-0  00000+0 0  9998
2 43175   0.0169  23.5069 0000728  82.0885 240.8755  1.00270556  5609
GOES 17                 
1 43226U 18022A   19185.51966043  .00000094  00000-0  00000+0 0  9990
2 43226   0.0351 136.5197 0000932 299.1875 256.3944  1.00270758  4967
HISPASAT 30W-6          
1 43228U 18023A   19184.74015046 -.00000217  00000-0  00000+0 0  9993
2 43228   0.0418  50.2963 0005559  31.1026  76.5146  1.00271460  5023
SUPERBIRD 8             
1 43271U 18033A   19184.85019939 -.00000094  00000-0  00000+0 0  9992
2 43271   0.0147  23.0120 0000933  92.0478 274.5750  1.00270305  4589
HYLAS 4                 
1 43272U 18033B   19185.31376831 -.00000237  00000-0  00000+0 0  9991
2 43272   0.0724 119.4870 0003711  37.6025 204.3785  1.00271758  4620
IRNSS-1I                
1 43286U 18035A   19184.90055760  .00000086  00000-0  00000+0 0  9998
2 43286  29.2834 115.3700 0018157 185.4590   0.0369  1.00268665  4594
COSMOS 2526             
1 43432U 18037A   19184.84348222 -.00000346  00000-0  00000+0 0  9994
2 43432   0.0313  83.8218 0001268  20.7773 248.6718  1.00275031  4502
APSTAR 6C               
1 43450U 18041A   19185.38313267 -.00000321  00000-0  00000+0 0  9993
2 43450   0.0410 136.7263 0001695 269.4963 147.8280  1.00271366  4371
BANGABANDHUSAT-1        
1 43463U 18044A   19185.05705889 -.00000365  00000-0  00000+0 0  9997
2 43463   0.0184  35.7353 0001788  58.5076 327.1710  1.00267482  4269
SES-12                  
1 43488U 18049A   19185.12403917 -.00000272  00000-0  00000+0 0  9991
2 43488   0.0219  48.6728 0001223 171.7904 201.0294  1.00269216  3966
FENGYUN 2H              
1 43491U 18050A   19184.90544282 -.00000125  00000-0  00000-0 0  9991
2 43491   1.4725 281.5830 0003206 232.7598 172.1562  1.00269457  4042
BEIDOU IGSO-7           
1 43539U 18057A   19184.91250894 -.00000076  00000-0  00000-0 0  9990
2 43539  55.0375 185.4593 0023910 202.4453 335.6246  1.00273000  3680
TELSTAR 19V             
1 43562U 18059A   19185.17435705 -.00000283  00000-0  00000+0 0  9992
2 43562   0.0194  75.6992 0002294  74.6428 131.3021  1.00269589  3691
TELKOM 4 (MERAH PUTIH)  
1 43587U 18064A   19184.90396296 -.00000346  00000-0  00000-0 0  9997
2 43587   0.0151  17.9474 0001068  91.8202 245.2853  1.00270355  3392
TELSTAR 18V (APSTAR 5C) 
1 43611U 18069A   19184.70185389 -.00000295  00000-0  00000+0 0  9999
2 43611   0.0097  30.5120 0000971  16.9497 264.6526  1.00270695  3135
AZERSPACE 2 (IS-38)     
1 43632U 18074A   19184.82690740  .00000135  00000-0  00000+0 0  9995
2 43632   0.0179  31.2965 0001109  73.3490 159.6935  1.00270737  3031
HORIZONS 3E             
1 43633U 18074B   19184.85159517 -.00000033  00000-0  00000+0 0  9999
2 43633   0.0477 181.1448 0000045  84.7791 131.2192  1.00266574  2889
AEHF-4 (USA 288)        
1 43651U 18079A   19185.24099361 -.00000158  00000-0  00000+0 0  9996
2 43651   4.5651 311.6623 0002874 115.5339 207.3136  1.00269690  2829
BEIDOU-3 G1             
1 43683U 18085A   19184.76952843 -.00000245  00000-0  00000-0 0  9995
2 43683   2.5450 268.6487 0001121 189.6772 244.6298  1.00267259  2591
GSAT-29                 
1 43698U 18089A   19185.47502878  .00000082  00000-0  00000+0 0  9990
2 43698   0.0595 267.7907 0002517 169.9512  70.4450  1.00270421  2354
ES'HAIL 2               
1 43700U 18090A   19184.82306900  .00000143  00000-0  00000+0 0  9990
2 43700   0.0243  80.3670 0000822  30.3725 132.8761  1.00272817  2447
GEO-KOMPSAT-2A          
1 43823U 18100A   19185.48959550 -.00000348  00000-0  00000+0 0  9994
2 43823   0.0337 193.2262 0001824 248.9291 144.5382  1.00268519  2191
GSAT-11                 
1 43824U 18100B   19184.83266497 -.00000078  00000-0  00000+0 0  9994
2 43824   0.0779 279.1770 0007077 176.5181 199.5733  1.00271314  2153
GSAT-7A                 
1 43864U 18105A   19184.76785295  .00000026  00000-0  00000-0 0  9990
2 43864   0.0583 111.0447 0001961 332.7604 176.8388  1.00270665  2003
COSMOS 2533             
1 43867U 18107A   19184.83187983 -.00000040  00000-0  00000-0 0  9990
2 43867   0.0379 102.1052 0000954 153.3074  35.5691  1.00272125  1944
TJS-3                   
1 43874U 18110A   19184.93901669  .00000059  00000-0  00000-0 0  9997
2 43874   0.0529 248.5689 0003324 287.9401 252.5074  1.00839354  2010
TJS-3 AKM               
1 43917U 18110C   19184.94268641  .00000054  00000-0  00000-0 0  9997
2 43917   0.1426 101.4035 0002254  53.2446 165.3965  1.00274561  1877
CHINASAT 2D (ZX 2D)     
1 43920U 19001A   19185.20279966 -.00000340  00000-0  00000+0 0  9991
2 43920   0.0086 200.4401 0002000 222.5897  61.8906  1.00268885  1898
GSAT-31                 
1 44035U 19007B   19184.91382851  .00000123  00000-0  00000-0 0  9999
2 44035   0.0470  93.8853 0000670 303.7790 260.7885  1.00272517  1504
NUSANTARA SATU          
1 44048U 19009A   19185.45256999 -.00000239  00000-0  00000+0 0  9996
2 44048   0.0153  65.4389 0001743  35.1388 130.5090  1.00270167  1305
WGS 10 (USA 291)        
1 44071U 19014A   19182.74563152  .00000024  00000-0  00000+0 0  9990
2 44071   0.0062 284.0508 0000366 217.3452 284.6199  1.00273604  1128
ARABSAT 6A              
1 44186U 19021A   19184.82402861  .00000152  00000-0  00000+0 0  9997
2 44186   0.0275  66.7791 0002345  98.9340  82.8878  1.00269125   751
BEIDOU-3 IGSO-1         
1 44204U 19023A   19185.40077551 -.00000220  00000-0  10000-3 0  9991
2 44204  54.9987  64.7884 0016590 179.9654 296.0877  1.00283554   891
